STARLINK-5164           
1 54178U 22141X   26068.10515317 -.00019565  00000+0 -12164-2 0  9993
2 54178  53.2185   6.4240 0001110  61.6652 298.4453 15.08783445185774
SEDNA-2                 
1 63153U 25009DQ  26068.79893845  .00008085  00000+0  49393-3 0  9990
2 63153  97.4615 144.8075 0010309  53.0260 307.1912 15.10492622 63116
